{"type": "FeatureCollection", "features": [{"id": "r190911", "type": "Feature", "geometry": {"type": "Point", "coordinates": [90.42427983595019, 53.36024485]}, "properties": {"регион": "хакасия", "федеральный округ": "сибирский", "количество городов-участников конкурса": 13, "количество ОНП": 13, "итого подано заявок": 16, "победители": 7, "байес": 25, "Оптимальность участия (доля побед)": 43.75, "Эффективность": 3.06, "удельная эффективность участия": 9.42, "Unnamed: 9": 18.39, "Unnamed: 10": 20.56065614}}, {"id": "r115134", "type": "Feature", "geometry": {"type": "Point", "coordinates": [52.761834538251776, 57.198287500000006]}, "properties": {"регион": "удмуртия", "федеральный округ": "приволжский", "количество городов-участников конкурса": 25, "количество ОНП": 25, "итого подано заявок": 21, "победители": 13, "байес": 43, "Оптимальность участия (доля побед)": 61.9, "Эффективность": 8.05, "удельная эффективность участия": 24.74, "Unnamed: 9": 39.08, "Unnamed: 10": 39.04779132}}, {"id": "r80513", "type": "Feature", "geometry": {"type": "Point", "coordinates": [47.14890683430516, 55.480288400000006]}, "properties": {"регион": "чувашия", "федеральный округ": "приволжский", "количество городов-участников конкурса": 21, "количество ОНП": 19, "итого подано заявок": 23, "победители": 16, "байес": 52, "Оптимальность участия (доля побед)": 69.57, "Эффективность": 11.13, "удельная эффективность участия": 34.22, "Unnamed: 9": 47.13, "Unnamed: 10": 47.3398125}}, {"id": "r109878", "type": "Feature", "geometry": {"type": "Point", "coordinates": [41.69866671116069, 43.842502]}, "properties": {"регион": "карачаево-черкесия", "федеральный округ": "северо-кавказский", "количество городов-участников конкурса": 13, "количество ОНП": 13, "итого подано заявок": 8, "победители": 5, "байес": 19, "Оптимальность участия (доля побед)": 62.5, "Эффективность": 3.13, "удельная эффективность участия": 9.61, "Unnamed: 9": 10.34, "Unnamed: 10": 24.13206093}}, {"id": "r115100", "type": "Feature", "geometry": {"type": "Point", "coordinates": [50.57600044375001, 59.04321254375001]}, "properties": {"регион": "кировская область", "федеральный округ": "приволжский", "количество городов-участников конкурса": 42, "количество ОНП": 42, "итого подано заявок": 50, "победители": 19, "байес": 41, "Оптимальность участия (доля побед)": 38.0, "Эффективность": 7.22, "удельная эффективность участия": 22.2, "Unnamed: 9": 51.72, "Unnamed: 10": 25.32034255}}, {"id": "r79374", "type": "Feature", "geometry": {"type": "Point", "coordinates": [50.68003718239296, 55.32533355]}, "properties": {"регион": "татарстан", "федеральный округ": "приволжский", "количество городов-участников конкурса": 47, "количество ОНП": 45, "итого подано заявок": 93, "победители": 55, "байес": 75, "Оптимальность участия (доля побед)": 59.14, "Эффективность": 32.53, "удельная эффективность участия": 100.0, "Unnamed: 9": 100.0, "Unnamed: 10": 48.76658829}}, {"id": "r72193", "type": "Feature", "geometry": {"type": "Point", "coordinates": [48.22991123125, 51.830825593750006]}, "properties": {"регион": "саратовская область", "федеральный округ": "приволжский", "количество городов-участников конкурса": 42, "количество ОНП": 42, "итого подано заявок": 83, "победители": 36, "байес": 54, "Оптимальность участия (доля побед)": 43.37, "Эффективность": 15.61, "удельная эффективность участия": 48.0, "Unnamed: 9": 94.25, "Unnamed: 10": 32.99252878}}, {"id": "r2095259", "type": "Feature", "geometry": {"type": "Point", "coordinates": [34.527622550000004, 57.247587100000004]}, "properties": {"регион": "тверская область", "федеральный округ": "центральный", "количество городов-участников конкурса": 41, "количество ОНП": 41, "итого подано заявок": 56, "победители": 30, "байес": 61, "Оптимальность участия (доля побед)": 53.57, "Эффективность": 16.07, "удельная эффективность участия": 49.41, "Unnamed: 9": 88.51, "Unnamed: 10": 40.27376237}}, {"id": "r3795586", "type": "Feature", "geometry": {"type": "Point", "coordinates": [34.417772595109795, 45.21061175]}, "properties": {"регион": "крым", "федеральный округ": "южный", "количество городов-участников конкурса": 25, "количество ОНП": 23, "итого подано заявок": 11, "победители": 7, "байес": 26, "Оптимальность участия (доля побед)": 63.64, "Эффективность": 4.45, "удельная эффективность участия": 13.69, "Unnamed: 9": 14.94, "Unnamed: 10": 31.00945132}}, {"id": "r72169", "type": "Feature", "geometry": {"type": "Point", "coordinates": [39.243245800000004, 52.73685795]}, "properties": {"регион": "липецкая область", "федеральный округ": "центральный", "количество городов-участников конкурса": 19, "количество ОНП": 19, "итого подано заявок": 40, "победители": 22, "байес": 56, "Оптимальность участия (доля побед)": 55.0, "Эффективность": 12.1, "удельная эффективность участия": 37.2, "Unnamed: 9": 60.92, "Unnamed: 10": 39.12567084}}, {"id": "r81993", "type": "Feature", "geometry": {"type": "Point", "coordinates": [37.4250503, 53.8990967]}, "properties": {"регион": "тульская область", "федеральный округ": "центральный", "количество городов-участников конкурса": 19, "количество ОНП": 8, "итого подано заявок": 31, "победители": 22, "байес": 63, "Оптимальность участия (доля побед)": 70.97, "Эффективность": 15.61, "удельная эффективность участия": 48.0, "Unnamed: 9": 63.22, "Unnamed: 10": 52.18067263}}, {"id": "r103906", "type": "Feature", "geometry": {"type": "Point", "coordinates": [21.1454385, 54.851216050000005]}, "properties": {"регион": "калининградская область", "федеральный округ": "северо-западный", "количество городов-участников конкурса": 23, "количество ОНП": 21, "итого подано заявок": 44, "победители": 27, "байес": 65, "Оптимальность участия (доля побед)": 61.36, "Эффективность": 16.57, "удельная эффективность участия": 50.94, "Unnamed: 9": 82.76, "Unnamed: 10": 45.97697119}}, {"id": "r145730", "type": "Feature", "geometry": {"type": "Point", "coordinates": [117.19182990000002, 52.444708500000004]}, "properties": {"регион": "забайкальский край", "федеральный округ": "дальневосточный", "количество городов-участников конкурса": 40, "количество ОНП": 34, "итого подано заявок": 82, "победители": 35, "байес": 52, "Оптимальность участия (доля побед)": 42.68, "Эффективность": 14.94, "удельная эффективность участия": 45.93, "Unnamed: 9": 93.1, "Unnamed: 10": 32.28958001}}, {"id": "r393980", "type": "Feature", "geometry": {"type": "Point", "coordinates": [33.626396050000004, 63.6743566]}, "properties": {"регион": "карелия", "федеральный округ": "северо-западный", "количество городов-участников конкурса": 19, "количество ОНП": 19, "итого подано заявок": 26, "победители": 12, "байес": 37, "Оптимальность участия (доля побед)": 46.15, "Эффективность": 5.54, "удельная эффективность участия": 17.03, "Unnamed: 9": 32.18, "Unnamed: 10": 27.46723654}}, {"id": "r112819", "type": "Feature", "geometry": {"type": "Point", "coordinates": [47.74955511851486, 47.064144500000005]}, "properties": {"регион": "астраханская область", "федеральный округ": "южный", "количество городов-участников конкурса": 7, "количество ОНП": 6, "итого подано заявок": 13, "победители": 3, "байес": 10, "Оптимальность участия (доля побед)": 23.08, "Эффективность": 0.69, "удельная эффективность участия": 2.13, "Unnamed: 9": 5.75, "Unnamed: 10": 3.91486237}}, {"id": "r115114", "type": "Feature", "geometry": {"type": "Point", "coordinates": [47.913362400000004, 56.58615950000001]}, "properties": {"регион": "марий эл", "федеральный округ": "приволжский", "количество городов-участников конкурса": 15, "количество ОНП": 15, "итого подано заявок": 13, "победители": 10, "байес": 36, "Оптимальность участия (доля побед)": 76.92, "Эффективность": 7.69, "удельная эффективность участия": 23.65, "Unnamed: 9": 27.59, "Unnamed: 10": 45.47860928}}, {"id": "r151233", "type": "Feature", "geometry": {"type": "Point", "coordinates": [159.43791157500002, 56.001837824999996]}, "properties": {"регион": "камчатский край", "федеральный округ": "дальневосточный", "количество городов-участников конкурса": 16, "количество ОНП": 16, "итого подано заявок": 30, "победители": 19, "байес": 56, "Оптимальность участия (доля побед)": 63.33, "Эффективность": 12.03, "удельная эффективность участия": 37.0, "Unnamed: 9": 54.02, "Unnamed: 10": 44.3763149}}, {"id": "r274048", "type": "Feature", "geometry": {"type": "Point", "coordinates": [45.118511559374994, 67.51450117812502]}, "properties": {"регион": "ненецкий ао", "федеральный округ": "северо-западный", "количество городов-участников конкурса": 1, "количество ОНП": 1, "итого подано заявок": 2, "победители": 0, "байес": 1, "Оптимальность участия (доля побед)": 0.0, "Эффективность": 0.0, "удельная эффективность участия": 0.0, "Unnamed: 10": -35.01030905}}, {"id": "r51490", "type": "Feature", "geometry": {"type": "Point", "coordinates": [38.3086338125, 54.9750761875]}, "properties": {"регион": "московская область", "федеральный округ": "центральный", "количество городов-участников конкурса": 71, "количество ОНП": 55, "итого подано заявок": 107, "победители": 52, "байес": 63, "Оптимальность участия (доля побед)": 48.6, "Эффективность": 25.27, "удельная эффективность участия": 77.69, "Unnamed: 9": 98.85, "Unnamed: 10": 39.1760503}}, {"id": "r77665", "type": "Feature", "geometry": {"type": "Point", "coordinates": [44.29990385000001, 49.3456702]}, "properties": {"регион": "волгоградская область", "федеральный округ": "южный", "количество городов-участников конкурса": 35, "количество ОНП": 34, "итого подано заявок": 46, "победители": 17, "байес": 38, "Оптимальность участия (доля побед)": 36.96, "Эффективность": 6.28, "удельная эффективность участия": 19.32, "Unnamed: 9": 48.28, "Unnamed: 10": 23.90437477}}, {"id": "r147167", "type": "Feature", "geometry": {"type": "Point", "coordinates": [132.66262423682076, 48.57567145]}, "properties": {"регион": "еврейская ао", "федеральный округ": "дальневосточный", "количество городов-участников конкурса": 7, "количество ОНП": 6, "итого подано заявок": 7, "победители": 7, "байес": 24, "Оптимальность участия (доля побед)": 100.0, "Эффективность": 7.0, "удельная эффективность участия": 21.52, "Unnamed: 9": 19.54, "Unnamed: 10": 50.61746868}}, {"id": "r151228", "type": "Feature", "geometry": {"type": "Point", "coordinates": [154.1121589, 62.48833380000001]}, "properties": {"регион": "магаданская область", "федеральный округ": "дальневосточный", "количество городов-участников конкурса": 8, "количество ОНП": 8, "итого подано заявок": 18, "победители": 9, "байес": 31, "Оптимальность участия (доля побед)": 50.0, "Эффективность": 4.5, "удельная эффективность участия": 13.83, "Unnamed: 9": 26.44, "Unnamed: 10": 26.90117848}}, {"id": "r151234", "type": "Feature", "geometry": {"type": "Point", "coordinates": [125.30753043750002, 64.59902378750002]}, "properties": {"регион": "якутия", "федеральный округ": "дальневосточный", "количество городов-участников конкурса": 48, "количество ОНП": 43, "итого подано заявок": 90, "победители": 33, "байес": 45, "Оптимальность участия (доля побед)": 36.67, "Эффективность": 12.1, "удельная эффективность участия": 37.2, "Unnamed: 9": 91.95, "Unnamed: 10": 27.21164082}}, {"id": "r77687", "type": "Feature", "geometry": {"type": "Point", "coordinates": [61.0192422, 54.9558924]}, "properties": {"регион": "челябинская область", "федеральный округ": "уральский", "количество городов-участников конкурса": 42, "количество ОНП": 40, "итого подано заявок": 77, "победители": 19, "байес": 26, "Оптимальность участия (доля побед)": 24.68, "Эффективность": 4.69, "удельная эффективность участия": 14.41, "Unnamed: 9": 50.57, "Unnamed: 10": 16.02591587}}, {"id": "r72182", "type": "Feature", "geometry": {"type": "Point", "coordinates": [44.73048619311845, 53.16154585]}, "properties": {"регион": "пензенская область", "федеральный округ": "приволжский", "количество городов-участников конкурса": 28, "количество ОНП": 28, "итого подано заявок": 35, "победители": 15, "байес": 40, "Оптимальность участия (доля побед)": 42.86, "Эффективность": 6.43, "удельная эффективность участия": 19.76, "Unnamed: 9": 43.68, "Unnamed: 10": 27.12271778}}, {"id": "r72196", "type": "Feature", "geometry": {"type": "Point", "coordinates": [44.446928650000004, 54.416717250000005]}, "properties": {"регион": "мордовия", "федеральный округ": "приволжский", "количество городов-участников конкурса": 24, "количество ОНП": 24, "итого подано заявок": 33, "победители": 17, "байес": 48, "Оптимальность участия (доля побед)": 51.52, "Эффективность": 8.76, "удельная эффективность участия": 26.92, "Unnamed: 9": 49.43, "Unnamed: 10": 34.3031812}}, {"id": "r108082", "type": "Feature", "geometry": {"type": "Point", "coordinates": [38.4855461375, 45.7654127125]}, "properties": {"регион": "краснодарский край", "федеральный округ": "южный", "количество городов-участников конкурса": 45, "количество ОНП": 44, "итого подано заявок": 64, "победители": 28, "байес": 51, "Оптимальность участия (доля побед)": 43.75, "Эффективность": 12.25, "удельная эффективность участия": 37.66, "Unnamed: 9": 83.91, "Unnamed: 10": 31.9345264}}, {"id": "r140291", "type": "Feature", "geometry": {"type": "Point", "coordinates": [67.83956836892624, 57.56786770000001]}, "properties": {"регион": "тюменская область", "федеральный округ": "уральский", "количество городов-участников конкурса": 4, "количество ОНП": 3, "итого подано заявок": 9, "победители": 7, "байес": 26, "Оптимальность участия (доля побед)": 77.78, "Эффективность": 5.44, "удельная эффективность участия": 16.74, "Unnamed: 9": 17.24, "Unnamed: 10": 38.58543454}}, {"id": "r151225", "type": "Feature", "geometry": {"type": "Point", "coordinates": [135.25261856389545, 45.294142]}, "properties": {"регион": "приморский край", "федеральный округ": "дальневосточный", "количество городов-участников конкурса": 29, "количество ОНП": 19, "итого подано заявок": 53, "победители": 23, "байес": 48, "Оптимальность участия (доля побед)": 43.4, "Эффективность": 9.98, "удельная эффективность участия": 30.69, "Unnamed: 9": 72.41, "Unnamed: 10": 30.47671829}}, {"id": "r102269", "type": "Feature", "geometry": {"type": "Point", "coordinates": [37.35625191344436, 55.550031450000006]}, "properties": {"регион": "москва", "федеральный округ": "центральный", "количество городов-участников конкурса": 1, "количество ОНП": 1, "итого подано заявок": 0, "победители": 0, "Оптимальность участия (доля побед)": 0.0, "Эффективность": 0.0, "удельная эффективность участия": 0.0}}, {"id": "r115106", "type": "Feature", "geometry": {"type": "Point", "coordinates": [36.661871675, 60.434329175]}, "properties": {"регион": "вологодская область", "федеральный округ": "северо-западный", "количество городов-участников конкурса": 29, "количество ОНП": 27, "итого подано заявок": 55, "победители": 22, "байес": 44, "Оптимальность участия (доля побед)": 40.0, "Эффективность": 8.8, "удельная эффективность участия": 27.05, "Unnamed: 9": 65.52, "Unnamed: 10": 27.65617487}}, {"id": "r115135", "type": "Feature", "geometry": {"type": "Point", "coordinates": [56.43899467562514, 58.88439115]}, "properties": {"регион": "пермский край", "федеральный округ": "приволжский", "количество городов-участников конкурса": 43, "количество ОНП": 41, "итого подано заявок": 55, "победители": 23, "байес": 47, "Оптимальность участия (доля побед)": 41.82, "Эффективность": 9.62, "удельная эффективность участия": 29.57, "Unnamed: 9": 71.26, "Unnamed: 10": 29.28331109}}, {"id": "r72181", "type": "Feature", "geometry": {"type": "Point", "coordinates": [40.03969148853797, 50.83123925]}, "properties": {"регион": "воронежская область", "федеральный округ": "центральный", "количество городов-участников конкурса": 32, "количество ОНП": 31, "итого подано заявок": 52, "победители": 25, "байес": 53, "Оптимальность участия (доля побед)": 48.08, "Эффективность": 12.02, "удельная эффективность участия": 36.95, "Unnamed: 9": 74.71, "Unnamed: 10": 34.62718477}}, {"id": "r81995", "type": "Feature", "geometry": {"type": "Point", "coordinates": [35.3584113, 54.314093150000005]}, "properties": {"регион": "калужская область", "федеральный округ": "центральный", "количество городов-участников конкурса": 29, "количество ОНП": 27, "итого подано заявок": 78, "победители": 29, "байес": 44, "Оптимальность участия (доля побед)": 37.18, "Эффективность": 10.78, "удельная эффективность участия": 33.15, "Unnamed: 9": 86.21, "Unnamed: 10": 27.00536329}}, {"id": "r109876", "type": "Feature", "geometry": {"type": "Point", "coordinates": [47.14988017944228, 43.0883099]}, "properties": {"регион": "дагестан", "федеральный округ": "северо-кавказский", "количество городов-участников конкурса": 46, "количество ОНП": 45, "итого подано заявок": 27, "победители": 11, "байес": 33, "Оптимальность участия (доля побед)": 40.74, "Эффективность": 4.48, "удельная эффективность участия": 13.78, "Unnamed: 9": 29.89, "Unnamed: 10": 23.25219279}}, {"id": "r115136", "type": "Feature", "geometry": {"type": "Point", "coordinates": [53.09636023021911, 63.809629050000005]}, "properties": {"регион": "коми", "федеральный округ": "северо-западный", "количество городов-участников конкурса": 19, "количество ОНП": 19, "итого подано заявок": 14, "победители": 2, "байес": 5, "Оптимальность участия (доля побед)": 14.29, "Эффективность": 0.29, "удельная эффективность участия": 0.88, "Unnamed: 9": 4.6, "Unnamed: 10": -0.75976612}}, {"id": "r145194", "type": "Feature", "geometry": {"type": "Point", "coordinates": [86.89922615, 50.86535550000001]}, "properties": {"регион": "алтай", "федеральный округ": "сибирский", "количество городов-участников конкурса": 10, "количество ОНП": 10, "итого подано заявок": 4, "победители": 3, "байес": 11, "Оптимальность участия (доля побед)": 75.0, "Эффективность": 2.25, "удельная эффективность участия": 6.92, "Unnamed: 9": 6.9, "Unnamed: 10": 14.57232307}}, {"id": "r2099216", "type": "Feature", "geometry": {"type": "Point", "coordinates": [35.460746050000004, 67.92239395000001]}, "properties": {"регион": "мурманская область", "федеральный округ": "северо-западный", "количество городов-участников конкурса": 20, "количество ОНП": 17, "итого подано заявок": 42, "победители": 26, "байес": 64, "Оптимальность участия (доля побед)": 61.9, "Эффективность": 16.1, "удельная эффективность участия": 49.48, "Unnamed: 9": 78.16, "Unnamed: 10": 46.11870999}}, {"id": "r71950", "type": "Feature", "geometry": {"type": "Point", "coordinates": [40.60199615386047, 54.3377572]}, "properties": {"регион": "рязанская область", "федеральный округ": "центральный", "количество городов-участников конкурса": 30, "количество ОНП": 29, "итого подано заявок": 43, "победители": 20, "байес": 48, "Оптимальность участия (доля побед)": 46.51, "Эффективность": 9.3, "удельная эффективность участия": 28.6, "Unnamed: 9": 55.17, "Unnamed: 10": 31.8810219}}, {"id": "r72194", "type": "Feature", "geometry": {"type": "Point", "coordinates": [50.249358400000006, 53.22509910000001]}, "properties": {"регион": "самарская область", "федеральный округ": "приволжский", "количество городов-участников конкурса": 34, "количество ОНП": 33, "итого подано заявок": 52, "победители": 26, "байес": 56, "Оптимальность участия (доля побед)": 50.0, "Эффективность": 13.0, "удельная эффективность участия": 39.97, "Unnamed: 9": 79.31, "Unnamed: 10": 36.40984519}}, {"id": "r77669", "type": "Feature", "geometry": {"type": "Point", "coordinates": [53.537571579281945, 52.43042845000001]}, "properties": {"регион": "оренбургская область", "федеральный округ": "приволжский", "количество городов-участников конкурса": 38, "количество ОНП": 38, "итого подано заявок": 52, "победители": 22, "байес": 46, "Оптимальность участия (доля побед)": 42.31, "Эффективность": 9.31, "удельная эффективность участия": 28.62, "Unnamed: 9": 67.82, "Unnamed: 10": 29.37722178}}, {"id": "r77677", "type": "Feature", "geometry": {"type": "Point", "coordinates": [55.72414183750001, 54.907614612500005]}, "properties": {"регион": "башкортостан", "федеральный округ": "приволжский", "количество городов-участников конкурса": 64, "количество ОНП": 62, "итого подано заявок": 78, "победители": 39, "байес": 62, "Оптимальность участия (доля побед)": 50.0, "Эффективность": 19.5, "удельная эффективность участия": 59.95, "Unnamed: 9": 95.4, "Unnamed: 10": 38.90368507}}, {"id": "r79379", "type": "Feature", "geometry": {"type": "Point", "coordinates": [61.7057054, 59.000278050000006]}, "properties": {"регион": "свердловская область", "федеральный округ": "уральский", "количество городов-участников конкурса": 49, "количество ОНП": 29, "итого подано заявок": 114, "победители": 41, "байес": 46, "Оптимальность участия (доля побед)": 35.96, "Эффективность": 14.75, "удельная эффективность участия": 45.33, "Unnamed: 9": 96.55, "Unnamed: 10": 27.57734773}}, {"id": "r89331", "type": "Feature", "geometry": {"type": "Point", "coordinates": [31.82411350999171, 58.17110195000001]}, "properties": {"регион": "новгородская область", "федеральный округ": "северо-западный", "количество городов-участников конкурса": 21, "количество ОНП": 21, "итого подано заявок": 38, "победители": 22, "байес": 57, "Оптимальность участия (доля побед)": 57.89, "Эффективность": 12.74, "удельная эффективность участия": 39.16, "Unnamed: 9": 66.67, "Unnamed: 10": 41.42134322}}, {"id": "r145195", "type": "Feature", "geometry": {"type": "Point", "coordinates": [95.99817122500001, 52.391036075]}, "properties": {"регион": "тыва", "федеральный округ": "сибирский", "количество городов-участников конкурса": 19, "количество ОНП": 19, "итого подано заявок": 16, "победители": 9, "байес": 32, "Оптимальность участия (доля побед)": 56.25, "Эффективность": 5.06, "удельная эффективность участия": 15.56, "Unnamed: 9": 24.14, "Unnamed: 10": 30.64048842}}, {"id": "r145729", "type": "Feature", "geometry": {"type": "Point", "coordinates": [111.2055391125, 54.753067837500005]}, "properties": {"регион": "бурятия", "федеральный округ": "дальневосточный", "количество городов-участников конкурса": 31, "количество ОНП": 24, "итого подано заявок": 46, "победители": 26, "байес": 61, "Оптимальность участия (доля побед)": 56.52, "Эффективность": 14.7, "удельная эффективность участия": 45.18, "Unnamed: 9": 80.46, "Unnamed: 10": 41.66670966}}, {"id": "r140294", "type": "Feature", "geometry": {"type": "Point", "coordinates": [78.22174340625001, 55.89136848125]}, "properties": {"регион": "новосибирская область", "федеральный округ": "сибирский", "количество городов-участников конкурса": 34, "количество ОНП": 33, "итого подано заявок": 35, "победители": 13, "байес": 34, "Оптимальность участия (доля побед)": 37.14, "Эффективность": 4.83, "удельная эффективность участия": 14.84, "Unnamed: 9": 35.63, "Unnamed: 10": 22.25513152}}, {"id": "r81994", "type": "Feature", "geometry": {"type": "Point", "coordinates": [39.104074468994526, 57.7472051]}, "properties": {"регион": "ярославская область", "федеральный округ": "центральный", "количество городов-участников конкурса": 25, "количество ОНП": 17, "итого подано заявок": 55, "победители": 23, "байес": 47, "Оптимальность участия (доля побед)": 41.82, "Эффективность": 9.62, "удельная эффективность участия": 29.57, "Unnamed: 9": 68.97, "Unnamed: 10": 29.28331109}}, {"id": "r72197", "type": "Feature", "geometry": {"type": "Point", "coordinates": [40.62211835, 55.95705120000001]}, "properties": {"регион": "владимирская область", "федеральный округ": "центральный", "количество городов-участников конкурса": 24, "количество ОНП": 21, "итого подано заявок": 55, "победители": 22, "байес": 44, "Оптимальность участия (доля побед)": 40.0, "Эффективность": 8.8, "удельная эффективность участия": 27.05, "Unnamed: 9": 59.77, "Unnamed: 10": 27.65617487}}, {"id": "r81997", "type": "Feature", "geometry": {"type": "Point", "coordinates": [33.283517700000004, 52.938752400000006]}, "properties": {"регион": "брянская область", "федеральный округ": "центральный", "количество городов-участников конкурса": 30, "количество ОНП": 29, "итого подано заявок": 34, "победители": 9, "байес": 22, "Оптимальность участия (доля побед)": 26.47, "Эффективность": 2.38, "удельная эффективность участия": 7.32, "Unnamed: 9": 22.99, "Unnamed: 10": 13.46122435}}, {"id": "r109877", "type": "Feature", "geometry": {"type": "Point", "coordinates": [45.747488600000004, 43.24304720000001]}, "properties": {"регион": "чечня", "федеральный округ": "северо-кавказский", "количество городов-участников конкурса": 25, "количество ОНП": 16, "итого подано заявок": 47, "победители": 25, "байес": 57, "Оптимальность участия (доля побед)": 53.19, "Эффективность": 13.3, "удельная эффективность участия": 40.88, "Unnamed: 9": 75.86, "Unnamed: 10": 38.67859466}}, {"id": "r151223", "type": "Feature", "geometry": {"type": "Point", "coordinates": [137.74988738125003, 51.42966119375001]}, "properties": {"регион": "хабаровский край", "федеральный округ": "дальневосточный", "количество городов-участников конкурса": 28, "количество ОНП": 22, "итого подано заявок": 55, "победители": 24, "байес": 49, "Оптимальность участия (доля побед)": 43.64, "Эффективность": 10.47, "удельная эффективность участия": 32.2, "Unnamed: 9": 73.56, "Unnamed: 10": 30.92520269}}, {"id": "r253252", "type": "Feature", "geometry": {"type": "Point", "coordinates": [45.01713552301938, 43.11542075]}, "properties": {"регион": "ингушетия", "федеральный округ": "северо-кавказский", "количество городов-участников конкурса": 9, "количество ОНП": 8, "итого подано заявок": 8, "победители": 5, "байес": 19, "Оптимальность участия (доля побед)": 62.5, "Эффективность": 3.13, "удельная эффективность участия": 9.61, "Unnamed: 9": 9.2, "Unnamed: 10": 24.13206093}}, {"id": "r72180", "type": "Feature", "geometry": {"type": "Point", "coordinates": [41.581890650000005, 52.705330800000006]}, "properties": {"регион": "тамбовская область", "федеральный округ": "центральный", "количество городов-участников конкурса": 26, "количество ОНП": 26, "итого подано заявок": 26, "победители": 12, "байес": 37, "Оптимальность участия (доля побед)": 46.15, "Эффективность": 5.54, "удельная эффективность участия": 17.03, "Unnamed: 9": 31.03, "Unnamed: 10": 27.46723654}}, {"id": "r108083", "type": "Feature", "geometry": {"type": "Point", "coordinates": [45.44294457678551, 46.495588]}, "properties": {"регион": "калмыкия", "федеральный округ": "южный", "количество городов-участников конкурса": 14, "количество ОНП": 14, "итого подано заявок": 10, "победители": 6, "байес": 23, "Оптимальность участия (доля побед)": 60.0, "Эффективность": 3.6, "удельная эффективность участия": 11.07, "Unnamed: 9": 11.49, "Unnamed: 10": 26.46888599}}, {"id": "r110032", "type": "Feature", "geometry": {"type": "Point", "coordinates": [44.24740120812895, 43.1914831]}, "properties": {"регион": "северная осетия", "федеральный округ": "северо-кавказский", "количество городов-участников конкурса": 11, "количество ОНП": 10, "итого подано заявок": 30, "победители": 13, "байес": 38, "Оптимальность участия (доля побед)": 43.33, "Эффективность": 5.63, "удельная эффективность участия": 17.32, "Unnamed: 9": 36.78, "Unnamed: 10": 26.3089849}}, {"id": "r145454", "type": "Feature", "geometry": {"type": "Point", "coordinates": [104.0890838359375, 55.15616348906251]}, "properties": {"регион": "иркутская область", "федеральный округ": "сибирский", "количество городов-участников конкурса": 47, "количество ОНП": 47, "итого подано заявок": 71, "победители": 33, "байес": 56, "Оптимальность участия (доля побед)": 46.48, "Эффективность": 15.34, "удельная эффективность участия": 47.15, "Unnamed: 9": 90.8, "Unnamed: 10": 35.05380036}}, {"id": "r151231", "type": "Feature", "geometry": {"type": "Point", "coordinates": [175.078125, 66.0034047]}, "properties": {"регион": "чукотский ао", "федеральный округ": "дальневосточный", "количество городов-участников конкурса": 7, "количество ОНП": 7, "итого подано заявок": 16, "победители": 10, "байес": 36, "Оптимальность участия (доля побед)": 62.5, "Эффективность": 6.25, "удельная эффективность участия": 19.21, "Unnamed: 9": 28.74, "Unnamed: 10": 35.98463997}}, {"id": "r176095", "type": "Feature", "geometry": {"type": "Point", "coordinates": [29.33416, 59.2944628]}, "properties": {"регион": "ленинградская область", "федеральный округ": "северо-западный", "количество городов-участников конкурса": 32, "количество ОНП": 27, "итого подано заявок": 52, "победители": 30, "байес": 65, "Оптимальность участия (доля побед)": 57.69, "Эффективность": 17.31, "удельная эффективность участия": 53.21, "Unnamed: 9": 89.66, "Unnamed: 10": 43.70345885}}, {"id": "r394235", "type": "Feature", "geometry": {"type": "Point", "coordinates": [143.06010455107196, 50.11896655]}, "properties": {"регион": "сахалинская область", "федеральный округ": "дальневосточный", "количество городов-участников конкурса": 15, "количество ОНП": 10, "итого подано заявок": 40, "победители": 19, "байес": 48, "Оптимальность участия (доля побед)": 47.5, "Эффективность": 9.03, "удельная эффективность участия": 27.75, "Unnamed: 9": 52.87, "Unnamed: 10": 32.23861828}}, {"id": "r72195", "type": "Feature", "geometry": {"type": "Point", "coordinates": [44.35236819671819, 56.276639]}, "properties": {"регион": "нижегородская область", "федеральный округ": "приволжский", "количество городов-участников конкурса": 38, "количество ОНП": 36, "итого подано заявок": 114, "победители": 47, "байес": 53, "Оптимальность участия (доля побед)": 41.23, "Эффективность": 19.38, "удельная эффективность участия": 59.57, "Unnamed: 9": 97.7, "Unnamed: 10": 32.4642779}}, {"id": "r81996", "type": "Feature", "geometry": {"type": "Point", "coordinates": [32.91040551670898, 54.73785585]}, "properties": {"регион": "смоленская область", "федеральный округ": "центральный", "количество городов-участников конкурса": 27, "количество ОНП": 27, "итого подано заявок": 34, "победители": 22, "байес": 61, "Оптимальность участия (доля побед)": 64.71, "Эффективность": 14.24, "удельная эффективность участия": 43.76, "Unnamed: 9": 62.07, "Unnamed: 10": 46.94191406}}, {"id": "r191706", "type": "Feature", "geometry": {"type": "Point", "coordinates": [73.62875750625003, 68.33381304375]}, "properties": {"регион": "ямало-ненецкий ао", "федеральный округ": "уральский", "количество городов-участников конкурса": 6, "количество ОНП": 4, "итого подано заявок": 18, "победители": 4, "байес": 12, "Оптимальность участия (доля побед)": 22.22, "Эффективность": 0.89, "удельная эффективность участия": 2.73, "Unnamed: 9": 8.05, "Unnamed: 10": 6.09877284}}, {"id": "r337422", "type": "Feature", "geometry": {"type": "Point", "coordinates": [30.0926255, 59.93931005]}, "properties": {"регион": "санкт-петербург", "федеральный округ": "северо-западный", "количество городов-участников конкурса": 1, "количество ОНП": 1, "итого подано заявок": 0, "победители": 0, "Оптимальность участия (доля побед)": 0.0, "Эффективность": 0.0, "удельная эффективность участия": 0.0}}, {"id": "r3788485", "type": "Feature", "geometry": {"type": "Point", "coordinates": [33.45959860374677, 44.565550300000005]}, "properties": {"регион": "севастополь", "федеральный округ": "южный", "количество городов-участников конкурса": 2, "количество ОНП": 2, "итого подано заявок": 1, "победители": 0, "байес": 1, "Оптимальность участия (доля побед)": 0.0, "Эффективность": 0.0, "удельная эффективность участия": 0.0, "Unnamed: 10": -57.89446228}}, {"id": "r83184", "type": "Feature", "geometry": {"type": "Point", "coordinates": [37.24094088004209, 50.613556200000005]}, "properties": {"регион": "белгородская область", "федеральный округ": "центральный", "количество городов-участников конкурса": 22, "количество ОНП": 21, "итого подано заявок": 61, "победители": 22, "байес": 40, "Оптимальность участия (доля побед)": 36.07, "Эффективность": 7.93, "удельная эффективность участия": 24.39, "Unnamed: 9": 58.62, "Unnamed: 10": 24.75599006}}, {"id": "r85617", "type": "Feature", "geometry": {"type": "Point", "coordinates": [41.37804415061976, 57.04529735]}, "properties": {"регион": "ивановская область", "федеральный округ": "центральный", "количество городов-участников конкурса": 24, "количество ОНП": 22, "итого подано заявок": 39, "победители": 29, "байес": 74, "Оптимальность участия (доля побед)": 74.36, "Эффективность": 21.56, "удельная эффективность участия": 66.3, "Unnamed: 9": 87.36, "Unnamed: 10": 57.95626449}}, {"id": "r72223", "type": "Feature", "geometry": {"type": "Point", "coordinates": [36.2998056, 51.67330870000001]}, "properties": {"регион": "курская область", "федеральный округ": "центральный", "количество городов-участников конкурса": 29, "количество ОНП": 27, "итого подано заявок": 44, "победители": 23, "байес": 55, "Оптимальность участия (доля побед)": 52.27, "Эффективность": 12.02, "удельная эффективность участия": 36.96, "Unnamed: 9": 70.11, "Unnamed: 10": 37.32805312}}, {"id": "r72224", "type": "Feature", "geometry": {"type": "Point", "coordinates": [36.42959235, 52.7937412]}, "properties": {"регион": "орловская область", "федеральный округ": "центральный", "количество городов-участников конкурса": 26, "количество ОНП": 24, "итого подано заявок": 70, "победители": 27, "байес": 45, "Оптимальность участия (доля побед)": 38.57, "Эффективность": 10.41, "удельная эффективность участия": 32.02, "Unnamed: 9": 81.61, "Unnamed: 10": 27.71638942}}, {"id": "r108081", "type": "Feature", "geometry": {"type": "Point", "coordinates": [43.28099830000001, 44.94747115]}, "properties": {"регион": "ставропольский край", "федеральный округ": "северо-кавказский", "количество городов-участников конкурса": 32, "количество ОНП": 30, "итого подано заявок": 30, "победители": 13, "байес": 38, "Оптимальность участия (доля побед)": 43.33, "Эффективность": 5.63, "удельная эффективность участия": 17.32, "Unnamed: 9": 37.93, "Unnamed: 10": 26.3089849}}, {"id": "r140295", "type": "Feature", "geometry": {"type": "Point", "coordinates": [82.21784880000001, 58.32075505]}, "properties": {"регион": "томская область", "федеральный округ": "сибирский", "количество городов-участников конкурса": 20, "количество ОНП": 19, "итого подано заявок": 21, "победители": 8, "байес": 26, "Оптимальность участия (доля побед)": 38.1, "Эффективность": 3.05, "удельная эффективность участия": 9.37, "Unnamed: 9": 20.69, "Unnamed: 10": 18.9202633}}, {"id": "r140337", "type": "Feature", "geometry": {"type": "Point", "coordinates": [42.857516215625004, 63.75930118437499]}, "properties": {"регион": "архангельская область", "федеральный округ": "северо-западный", "количество городов-участников конкурса": 26, "количество ОНП": 26, "итого подано заявок": 59, "победители": 22, "байес": 42, "Оптимальность участия (доля побед)": 37.29, "Эффективность": 8.2, "удельная эффективность участия": 25.22, "Unnamed: 9": 64.37, "Unnamed: 10": 25.6526495}}, {"id": "r144763", "type": "Feature", "geometry": {"type": "Point", "coordinates": [86.305925575, 55.118260975000005]}, "properties": {"регион": "кемеровская область", "федеральный округ": "сибирский", "количество городов-участников конкурса": 28, "количество ОНП": 26, "итого подано заявок": 51, "победители": 20, "байес": 42, "Оптимальность участия (доля побед)": 39.22, "Эффективность": 7.84, "удельная эффективность участия": 24.11, "Unnamed: 9": 56.32, "Unnamed: 10": 26.50752514}}, {"id": "r147166", "type": "Feature", "geometry": {"type": "Point", "coordinates": [128.7192944875, 52.47975688750001]}, "properties": {"регион": "амурская область", "федеральный округ": "дальневосточный", "количество городов-участников конкурса": 26, "количество ОНП": 25, "итого подано заявок": 59, "победители": 28, "байес": 55, "Оптимальность участия (доля побед)": 47.46, "Эффективность": 13.29, "удельная эффективность участия": 40.85, "Unnamed: 9": 85.06, "Unnamed: 10": 34.86818986}}, {"id": "r85606", "type": "Feature", "geometry": {"type": "Point", "coordinates": [40.94636526338708, 48.082259150000006]}, "properties": {"регион": "ростовская область", "федеральный округ": "южный", "количество городов-участников конкурса": 50, "количество ОНП": 49, "итого подано заявок": 40, "победители": 15, "байес": 37, "Оптимальность участия (доля побед)": 37.5, "Эффективность": 5.63, "удельная эффективность участия": 17.29, "Unnamed: 9": 42.53, "Unnamed: 10": 23.47237923}}, {"id": "r140292", "type": "Feature", "geometry": {"type": "Point", "coordinates": [73.33094765, 56.00555695]}, "properties": {"регион": "омская область", "федеральный округ": "сибирский", "количество городов-участников конкурса": 32, "количество ОНП": 32, "итого подано заявок": 38, "победители": 14, "байес": 35, "Оптимальность участия (доля побед)": 36.84, "Эффективность": 5.16, "удельная эффективность участия": 15.86, "Unnamed: 9": 41.38, "Unnamed: 10": 22.57030908}}, {"id": "r140296", "type": "Feature", "geometry": {"type": "Point", "coordinates": [66.31533993750001, 61.7304681125]}, "properties": {"регион": "ханты-мансийский ао", "федеральный округ": "уральский", "количество городов-участников конкурса": 18, "количество ОНП": 12, "итого подано заявок": 40, "победители": 16, "байес": 39, "Оптимальность участия (доля побед)": 40.0, "Эффективность": 6.4, "удельная эффективность участия": 19.68, "Unnamed: 9": 44.83, "Unnamed: 10": 25.61826783}}, {"id": "r144764", "type": "Feature", "geometry": {"type": "Point", "coordinates": [84.26879756250001, 53.1265219375]}, "properties": {"регион": "алтайский край", "федеральный округ": "сибирский", "количество городов-участников конкурса": 66, "количество ОНП": 66, "итого подано заявок": 12, "победители": 6, "байес": 23, "Оптимальность участия (доля побед)": 50.0, "Эффективность": 3.0, "удельная эффективность участия": 9.22, "Unnamed: 9": 13.79, "Unnamed: 10": 21.70983681}}, {"id": "r190090", "type": "Feature", "geometry": {"type": "Point", "coordinates": [95.48437691093751, 67.2443562109375]}, "properties": {"регион": "красноярский край", "федеральный округ": "сибирский", "количество городов-участников конкурса": 33, "количество ОНП": 29, "итого подано заявок": 68, "победители": 26, "байес": 45, "Оптимальность участия (доля побед)": 38.24, "Эффективность": 9.94, "удельная эффективность участия": 30.56, "Unnamed: 9": 77.01, "Unnamed: 10": 27.26247167}}, {"id": "r253256", "type": "Feature", "geometry": {"type": "Point", "coordinates": [40.140152482608116, 44.48878315]}, "properties": {"регион": "адыгея", "федеральный округ": "южный", "количество городов-участников конкурса": 9, "количество ОНП": 9, "итого подано заявок": 13, "победители": 9, "байес": 33, "Оптимальность участия (доля побед)": 69.23, "Эффективность": 6.23, "удельная эффективность участия": 19.16, "Unnamed: 9": 21.84, "Unnamed: 10": 38.6047792}}, {"id": "r1574364", "type": "Feature", "geometry": {"type": "Point", "coordinates": [33.45959860374677, 44.565550300000005]}, "properties": {"регион": "севастополь", "федеральный округ": "южный", "количество городов-участников конкурса": 2, "количество ОНП": 2, "итого подано заявок": 1, "победители": 0, "байес": 1, "Оптимальность участия (доля побед)": 0.0, "Эффективность": 0.0, "удельная эффективность участия": 0.0, "Unnamed: 10": -57.89446228}}, {"id": "r140290", "type": "Feature", "geometry": {"type": "Point", "coordinates": [65.3442741, 55.515078550000005]}, "properties": {"регион": "курганская область", "федеральный округ": "уральский", "количество городов-участников конкурса": 24, "количество ОНП": 24, "итого подано заявок": 44, "победители": 14, "байес": 31, "Оптимальность участия (доля побед)": 31.82, "Эффективность": 4.45, "удельная эффективность участия": 13.69, "Unnamed: 9": 40.23, "Unnamed: 10": 19.28459223}}, {"id": "r72192", "type": "Feature", "geometry": {"type": "Point", "coordinates": [47.421109423490876, 53.712336]}, "properties": {"регион": "ульяновская область", "федеральный округ": "приволжский", "количество городов-участников конкурса": 24, "количество ОНП": 21, "итого подано заявок": 31, "победители": 21, "байес": 61, "Оптимальность участия (доля побед)": 67.74, "Эффективность": 14.23, "удельная эффективность участия": 43.74, "Unnamed: 9": 57.47, "Unnamed: 10": 48.9830163}}, {"id": "r85963", "type": "Feature", "geometry": {"type": "Point", "coordinates": [43.82349536196553, 58.44619025]}, "properties": {"регион": "костромская область", "федеральный округ": "центральный", "количество городов-участников конкурса": 25, "количество ОНП": 25, "итого подано заявок": 15, "победители": 7, "байес": 25, "Оптимальность участия (доля побед)": 46.67, "Эффективность": 3.27, "удельная эффективность участия": 10.04, "Unnamed: 9": 16.09, "Unnamed: 10": 22.07119418}}, {"id": "r109879", "type": "Feature", "geometry": {"type": "Point", "coordinates": [43.43631795, 43.45492515]}, "properties": {"регион": "кабардино-балкария", "федеральный округ": "северо-кавказский", "количество городов-участников конкурса": 13, "количество ОНП": 13, "итого подано заявок": 18, "победители": 9, "байес": 31, "Оптимальность участия (доля побед)": 50.0, "Эффективность": 4.5, "удельная эффективность участия": 13.83, "Unnamed: 9": 25.29, "Unnamed: 10": 26.90117848}}, {"id": "r155262", "type": "Feature", "geometry": {"type": "Point", "coordinates": [29.192957092422432, 57.30483885]}, "properties": {"регион": "псковская область", "федеральный округ": "северо-западный", "количество городов-участников конкурса": 26, "количество ОНП": 25, "итого подано заявок": 39, "победители": 16, "байес": 40, "Оптимальность участия (доля побед)": 41.03, "Эффективность": 6.56, "удельная эффективность участия": 20.18, "Unnamed: 9": 45.98, "Unnamed: 10": 26.32967408}}]}